NORAD_CAT_ID,OBJECT_NAME,OBJECT_TYPE,EPOCH,MEAN_MOTION,ECCENTRICITY,INCLINATION,RA_OF_ASC_NODE,ARG_OF_PERICENTER,MEAN_ANOMALY,BSTAR,MEAN_MOTION_DOT,MEAN_MOTION_DDOT,TLE_LINE0,TLE_LINE1,TLE_LINE2,SEMIMAJOR_AXIS,PERIOD,APOGEE,PERIGEE,DECAYED
52679.0,STARLINK-4031,PAYLOAD,2023-07-04 02:57:01,15.08838003,0.0001106,53.2161,221.5692,66.0419,294.0689,2.0389e-05,3.7e-07,0.0,0 STARLINK-4031,1 52679U 22053Z   23185.12292902  .00000037  00000-0  20389-4 0  9993,2 52679  53.2161 221.5692 0001106  66.0419 294.0689 15.08838003 62866,6917.886,95.438,540.517,538.986,0.0
52679.0,STARLINK-4031,PAYLOAD,2023-07-05 09:09:20,15.08843322,0.0001012,53.2163,215.919,72.9047,287.2056,6.9551e-06,-1.77e-06,0.0,0 STARLINK-4031,1 52679U 22053Z   23186.38148641 -.00000177  00000-0  69551-5 0  9993,2 52679  53.2163 215.9190 0001012  72.9047 287.2056 15.08843322 63051,6917.87,95.437,540.435,539.035,0.0
52679.0,STARLINK-4031,PAYLOAD,2023-07-06 02:38:35,15.08834941,0.0001005,53.2162,212.648,72.3981,287.7121,9.7801e-05,1.269e-05,0.0,0 STARLINK-4031,1 52679U 22053Z   23187.11013163  .00001269  00000-0  97801-4 0  9995,2 52679  53.2162 212.6480 0001005  72.3981 287.7121 15.08834941 63166,6917.896,95.438,540.456,539.066,0.0
52679.0,STARLINK-4031,PAYLOAD,2023-07-07 10:26:17,15.08845432,0.0001032,53.216,206.7009,74.7344,285.3762,0.00014858,2.078e-05,0.0,0 STARLINK-4031,1 52679U 22053Z   23188.43492744  .00002078  00000-0  14858-3 0  9996,2 52679  53.2160 206.7009 0001032  74.7344 285.3762 15.08845432 63368,6917.864,95.437,540.443,539.015,0.0
52679.0,STARLINK-4031,PAYLOAD,2023-07-08 08:41:41,15.08840917,0.0001083,53.215,202.5377,72.5953,287.5157,8.7924e-05,1.112e-05,0.0,0 STARLINK-4031,1 52679U 22053Z   23189.36228972  .00001112  00000-0  87924-4 0  9992,2 52679  53.2150 202.5377 0001083  72.5953 287.5157 15.08840917 63508,6917.878,95.437,540.492,538.993,0.0
52679.0,STARLINK-4031,PAYLOAD,2023-07-09 11:43:15,15.08844089,0.0001082,53.2157,197.4824,72.4935,287.6175,4.555e-05,4.37e-06,0.0,0 STARLINK-4031,1 52679U 22053Z   23190.48836814  .00000437  00000-0  45550-4 0  9995,2 52679  53.2157 197.4824 0001082  72.4935 287.6175 15.08844089 63675,6917.868,95.437,540.481,538.984,0.0
52679.0,STARLINK-4031,PAYLOAD,2023-07-10 11:34:02,15.08840559,0.0001101,53.2159,193.0215,74.9911,285.1202,5.4346e-05,5.77e-06,0.0,0 STARLINK-4031,1 52679U 22053Z   23191.48196987  .00000577  00000-0  54346-4 0  9994,2 52679  53.2159 193.0215 0001101  74.9911 285.1202 15.08840559 63825,6917.879,95.438,540.505,538.982,0.0
52679.0,STARLINK-4031,PAYLOAD,2023-07-12 01:43:17,15.08836145,0.0001142,53.2161,185.8847,74.4453,285.6666,2.6439e-05,1.33e-06,0.0,0 STARLINK-4031,1 52679U 22053Z   23193.07173508  .00000133  00000-0  26439-4 0  9995,2 52679  53.2161 185.8847 0001142  74.4453 285.6666 15.08836145 64061,6917.892,95.438,540.547,538.967,0.0
52679.0,STARLINK-4031,PAYLOAD,2023-07-13 09:31:00,15.0883971,0.000118,53.2165,179.9375,73.743,286.3692,5.6302e-05,6.08e-06,0.0,0 STARLINK-4031,1 52679U 22053Z   23194.39653463  .00000608  00000-0  56302-4 0  9993,2 52679  53.2165 179.9375 0001180  73.7430 286.3692 15.08839710 64264,6917.881,95.438,540.563,538.93,0.0
52679.0,STARLINK-4031,PAYLOAD,2023-07-14 15:43:20,15.08845604,0.0001154,53.2167,174.2877,85.0737,275.0387,-9.0209e-05,-1.723e-05,0.0,0 STARLINK-4031,1 52679U 22053Z   23195.65509685 -.00001723  00000-0 -90209-4 0  9994,2 52679  53.2167 174.2877 0001154  85.0737 275.0387 15.08845604 64454,6917.863,95.437,540.527,538.93,0.0
52679.0,STARLINK-4031,PAYLOAD,2023-07-16 04:17:13,15.08837008,0.0001204,53.2163,167.4479,82.4461,277.6667,2.7329e-05,1.47e-06,0.0,0 STARLINK-4031,1 52679U 22053Z   23197.17862363  .00000147  00000-0  27329-4 0  9998,2 52679  53.2163 167.4479 0001204  82.4461 277.6667 15.08837008 64686,6917.89,95.438,540.587,538.922,0.0
52679.0,STARLINK-4031,PAYLOAD,2023-07-17 07:18:45,15.0885178,0.0001191,53.2163,162.3933,89.7239,270.389,0.00011375,1.523e-05,0.0,0 STARLINK-4031,1 52679U 22053Z   23198.30469282  .00001523  00000-0  11375-3 0  9999,2 52679  53.2163 162.3933 0001191  89.7239 270.3890 15.08851780 64853,6917.844,95.437,540.533,538.885,0.0
52679.0,STARLINK-4031,PAYLOAD,2023-07-17 15:15:41,15.08847434,0.0001191,53.2162,160.9065,87.9826,272.1302,8.2227e-05,1.021e-05,0.0,0 STARLINK-4031,1 52679U 22053Z   23198.63589543  .00001021  00000-0  82227-4 0  9996,2 52679  53.2162 160.9065 0001191  87.9826 272.1302 15.08847434 64909,6917.858,95.437,540.547,538.899,0.0
52679.0,STARLINK-4031,PAYLOAD,2023-07-19 02:14:10,15.08836979,0.0001708,53.219,154.3692,98.0234,262.0952,-0.00011891,-2.18e-05,0.0,0 STARLINK-4031,1 52679U 22053Z   23200.09318125 -.00002180  00000-0 -11891-3 0  9993,2 52679  53.2190 154.3692 0001708  98.0234 262.0952 15.08836979 65129,6917.89,95.438,540.936,538.573,0.0
52679.0,STARLINK-4031,PAYLOAD,2023-07-20 19:34:12,15.08834178,0.0001246,53.2169,146.6326,98.2504,261.863,8.8026e-05,1.113e-05,0.0,0 STARLINK-4031,1 52679U 22053Z   23201.81542755  .00001113  00000-0  88026-4 0  9990,2 52679  53.2169 146.6326 0001246  98.2504 261.8630 15.08834178 65389,6917.898,95.438,540.625,538.901,0.0
52679.0,STARLINK-4031,PAYLOAD,2023-07-21 05:06:31,15.08841011,0.0001354,53.2171,144.8487,103.5014,256.6129,0.00014575,2.033e-05,0.0,0 STARLINK-4031,1 52679U 22053Z   23202.21286297  .00002033  00000-0  14575-3 0  9990,2 52679  53.2171 144.8487 0001354 103.5014 256.6129 15.08841011 65442,6917.877,95.437,540.679,538.806,0.0
52679.0,STARLINK-4031,PAYLOAD,2023-07-23 23:52:43,15.08841061,0.0001465,53.2166,132.3587,105.6494,254.466,0.00028386,4.233e-05,0.0,0 STARLINK-4031,1 52679U 22053Z   23204.99495286  .00004233  00000-0  28386-3 0  9996,2 52679  53.2166 132.3587 0001465 105.6494 254.4660 15.08841061 66258,6917.877,95.437,540.756,538.729,0.0
52679.0,STARLINK-4031,PAYLOAD,2023-07-24 23:43:30,15.08851566,0.0001333,53.2176,127.8998,91.5047,268.6098,-2.6924e-05,-7.17e-06,0.0,0 STARLINK-4031,1 52679U 22053Z   23205.98855298 -.00000717  00000-0 -26924-4 0  9991,2 52679  53.2176 127.8998 0001333  91.5047 268.6098 15.08851566 66405,6917.845,95.437,540.632,538.788,0.0
52679.0,STARLINK-4031,PAYLOAD,2023-07-26 01:09:40,15.08847829,0.0001121,53.2163,123.1394,89.2872,270.8249,9.0464e-05,1.152e-05,0.0,0 STARLINK-4031,1 52679U 22053Z   23207.04838647  .00001152  00000-0  90464-4 0  9991,2 52679  53.2163 123.1394 0001121  89.2872 270.8249 15.08847829 66562,6917.856,95.437,540.497,538.946,0.0
52679.0,STARLINK-4031,PAYLOAD,2023-07-27 01:00:27,15.08850953,8.95e-05,53.2175,118.6828,89.7564,270.3531,0.0001312,1.802e-05,0.0,0 STARLINK-4031,1 52679U 22053Z   23208.04198006  .00001802  00000-0  13120-3 0  9995,2 52679  53.2175 118.6828 0000895  89.7564 270.3531 15.08850953 66714,6917.847,95.437,540.331,539.093,0.0
52679.0,STARLINK-4031,PAYLOAD,2023-07-27 21:40:29,15.08827169,0.0001087,53.2176,114.8162,98.6363,261.4752,-9.1072e-05,-1.736e-05,0.0,0 STARLINK-4031,1 52679U 22053Z   23208.90312310 -.00001736  00000-0 -91072-4 0  9997,2 52679  53.2176 114.8162 0001087  98.6363 261.4752 15.08827169 66847,6917.92,95.438,540.537,539.033,0.0
52679.0,STARLINK-4031,PAYLOAD,2023-07-28 00:51:16,15.08826207,9.89e-05,53.2176,114.2217,82.8824,277.2281,-9.0886e-05,-1.733e-05,0.0,0 STARLINK-4031,1 52679U 22053Z   23209.03560523 -.00001733  00000-0 -90886-4 0  9992,2 52679  53.2176 114.2217 0000989  82.8824 277.2281 15.08826207 66472,6917.923,95.438,540.472,539.103,0.0
52679.0,STARLINK-4031,PAYLOAD,2023-07-28 02:26:39,15.08827721,9.5e-05,53.2172,113.9234,87.0652,273.0449,-8.4215e-05,-1.627e-05,0.0,0 STARLINK-4031,1 52679U 22053Z   23209.10184424 -.00001627  00000-0 -84215-4 0  9993,2 52679  53.2172 113.9234 0000950  87.0652 273.0449 15.08827721 66873,6917.918,95.438,540.44,539.126,0.0
52679.0,STARLINK-4031,PAYLOAD,2023-07-28 16:45:07,15.08841361,7.59e-05,53.2171,111.2467,87.9222,272.1857,-4.0062e-05,-9.25e-06,0.0,0 STARLINK-4031,1 52679U 22053Z   23209.69799791 -.00000925  00000-0 -40062-4 0  9998,2 52679  53.2171 111.2467 0000759  87.9222 272.1857 15.08841361 66576,6917.876,95.437,540.266,539.216,0.0
52679.0,STARLINK-4031,PAYLOAD,2023-07-29 00:42:01,15.08852915,7.84e-05,53.2171,109.7612,78.4928,281.6152,7.4933e-05,9.05e-06,0.0,0 STARLINK-4031,1 52679U 22053Z   23210.02918848  .00000905  00000-0  74933-4 0  9993,2 52679  53.2171 109.7612 0000784  78.4928 281.6152 15.08852915 66622,6917.841,95.437,540.248,539.164,0.0
52679.0,STARLINK-4031,PAYLOAD,2023-07-30 02:08:12,15.08839948,0.0001103,53.2171,105.0035,69.6672,290.4438,0.00025816,3.823e-05,0.0,0 STARLINK-4031,1 52679U 22053Z   23211.08903788  .00003823  00000-0  25816-3 0  9994,2 52679  53.2171 105.0035 0001103  69.6672 290.4438 15.08839948 66787,6917.881,95.438,540.509,538.983,0.0
52679.0,STARLINK-4031,PAYLOAD,2023-07-31 09:55:55,15.0883921,0.0001182,53.2166,99.0559,75.7412,284.3712,-5.656e-05,-1.188e-05,0.0,0 STARLINK-4031,1 52679U 22053Z   23212.41383739 -.00001188  00000-0 -56560-4 0  9995,2 52679  53.2166  99.0559 0001182  75.7412 284.3712 15.08839210 66982,6917.883,95.438,540.565,538.93,0.0
52679.0,STARLINK-4031,PAYLOAD,2023-08-02 01:40:33,15.08850243,0.000103,53.2164,91.6207,85.1178,274.9932,0.00019028,2.743e-05,0.0,0 STARLINK-4031,1 52679U 22053Z   23214.06983698  .00002743  00000-0  19028-3 0  9991,2 52679  53.2164  91.6207 0001030  85.1178 274.9932 15.08850243 67231,6917.849,95.437,540.427,539.002,0.0
52679.0,STARLINK-4031,PAYLOAD,2023-08-03 19:00:35,15.08841571,0.0001151,53.2163,83.8892,113.5277,246.5836,1.8756e-06,-2.58e-06,0.0,0 STARLINK-4031,1 52679U 22053Z   23215.79207886 -.00000258  00000-0  18756-5 0  9999,2 52679  53.2163  83.8892 0001151 113.5277 246.5836 15.08841571 67493,6917.876,95.437,540.537,538.944,0.0
52679.0,STARLINK-4031,PAYLOAD,2023-08-05 01:12:55,15.08846609,0.0001119,53.2168,78.2402,98.4483,261.6636,0.00034898,5.272e-05,0.0,0 STARLINK-4031,1 52679U 22053Z   23217.05064063  .00005272  00000-0  34898-3 0  9991,2 52679  53.2168  78.2402 0001119  98.4483 261.6636 15.08846609 67681,6917.86,95.437,540.499,538.951,0.0
